STARLINK-31630          
1 59271U 24050T   26068.56880718 -.00002063  00000+0 -57526-4 0  9991
2 59271  53.1600 168.5079 0001409  92.3163 267.7999 15.30200807110710
STARLINK-33638          
1 63436U 25069D   26068.43606131  .00022588  00000+0  77283-3 0  9994
2 63436  53.1577 143.8151 0001288 102.7718 257.3427 15.30183365 53362
